[{"OBJECT_NAME":"CUPID","OBJECT_ID":"2021-088E","EPOCH":"2026-03-09T16:04:42.796128","MEAN_MOTION":15.24473777,"ECCENTRICITY":0.0013746,"INCLINATION":97.3985,"RA_OF_ASC_NODE":131.0756,"ARG_OF_PERICENTER":59.9938,"MEAN_ANOMALY":300.2662,"EPHEMERIS_TYPE":0,"CLASSIFICATION_TYPE":"U","NORAD_CAT_ID":49264,"ELEMENT_SET_NO":999,"REV_AT_EPOCH":24501,"BSTAR":0.00038662302,"MEAN_MOTION_DOT":9.454e-5,"MEAN_MOTION_DDOT":0},{"OBJECT_NAME":"STARLINK-30824","OBJECT_ID":"2023-167B","EPOCH":"2026-03-09T08:39:31.379040","MEAN_MOTION":15.26728143,"ECCENTRICITY":0.00010306,"INCLINATION":43.0003,"RA_OF_ASC_NODE":145.3645,"ARG_OF_PERICENTER":257.0695,"MEAN_ANOMALY":103.0041,"EPHEMERIS_TYPE":0,"CLASSIFICATION_TYPE":"U","NORAD_CAT_ID":58176,"ELEMENT_SET_NO":999,"REV_AT_EPOCH":13093,"BSTAR":0.00012600724,"MEAN_MOTION_DOT":3.121e-5,"MEAN_MOTION_DDOT":0}]
